{"type": "FeatureCollection", "features": [ {"type": "Feature", "properties": {"norad_id": 66416, "name": "HULIANWANG DIGUI 13E", "group": "last-30-days", "lat": 8.741589096900173, "lon": -70.35230061872842, "alt_km": 811.7019850193992, "timestamp": "2025-12-07T22:37:41.855804+00:00", "meta": {"OBJECT_NAME": "HULIANWANG DIGUI 13E", "OBJECT_ID": "2025-258E", "EPOCH": "2025-12-06T06:05:20.650272", "MEAN_MOTION": 14.21759879, "ECCENTRICITY": 0.00106116, "INCLINATION": 50.0051, "RA_OF_ASC_NODE": 289.3198, "ARG_OF_PERICENTER": 342.4117, "MEAN_ANOMALY": 17.6426, "EPHEMERIS_TYPE": 0, "CLASSIFICATION_TYPE": "U", "NORAD_CAT_ID": 66416, "ELEMENT_SET_NO": 999, "REV_AT_EPOCH": 373, "BSTAR": 0.00040565133, "MEAN_MOTION_DOT": 7.4e-06, "MEAN_MOTION_DDOT": 0}, "tle": {"line1": "1 66416U 25258E   25340.25371123  .00000740  00000+0  40565-3 0  9996", "line2": "2 66416  50.0051 289.3198 0010611 342.4117  17.6426 14.21759879  3739"}}, "geometry": {"type": "Point", "coordinates": [-70.35230061872842, 8.741589096900173]}}, {"type": "Feature", "properties": {"norad_id": 66417, "name": "HULIANWANG DIGUI 13F", "group": "last-30-days", "lat": 15.412909821899548, "lon": -64.42493755243548, "alt_km": 811.0607532137565, "timestamp": "2025-12-07T22:37:41.855815+00:00", "meta": {"OBJECT_NAME": "HULIANWANG DIGUI 13F", "OBJECT_ID": "2025-258F", "EPOCH": "2025-12-06T14:29:09.906432", "MEAN_MOTION": 14.21933133, "ECCENTRICITY": 0.00102248, "INCLINATION": 50.0001, "RA_OF_ASC_NODE": 287.8136, "ARG_OF_PERICENTER": 341.4358, "MEAN_ANOMALY": 18.618, "EPHEMERIS_TYPE": 0, "CLASSIFICATION_TYPE": "U", "NORAD_CAT_ID": 66417, "ELEMENT_SET_NO": 999, "REV_AT_EPOCH": 378, "BSTAR": 0.00035322897, "MEAN_MOTION_DOT": 6.26e-06, "MEAN_MOTION_DDOT": 0}, "tle": {"line1": "1 66417U 25258F   25340.60358688  .00000626  00000+0  35323-3 0  9996", "line2": "2 66417  50.0001 287.8136 0010224 341.4358  18.6180 14.21933133  3786"}}, "geometry": {"type": "Point", "coordinates": [-64.42493755243548, 15.412909821899548]}}, {"type": "Feature", "properties": {"norad_id": 66418, "name": "HULIANWANG DIGUI 13G", "group": "last-30-days", "lat": 32.00256708530833, "lon": -46.201612758982634, "alt_km": 812.9980045785496, "timestamp": "2025-12-07T22:37:41.855825+00:00", "meta": {"OBJECT_NAME": "HULIANWANG DIGUI 13G", "OBJECT_ID": "2025-258G", "EPOCH": "2025-12-07T07:14:21.853248", "MEAN_MOTION": 14.21580215, "ECCENTRICITY": 0.00081049, "INCLINATION": 50.0012, "RA_OF_ASC_NODE": 284.8412, "ARG_OF_PERICENTER": 339.3875, "MEAN_ANOMALY": 20.6709, "EPHEMERIS_TYPE": 0, "CLASSIFICATION_TYPE": "U", "NORAD_CAT_ID": 66418, "ELEMENT_SET_NO": 999, "REV_AT_EPOCH": 388, "BSTAR": 0.00030793411, "MEAN_MOTION_DOT": 5.21e-06, "MEAN_MOTION_DDOT": 0}, "tle": {"line1": "1 66418U 25258G   25341.30164182  .00000521  00000+0  30793-3 0  9999", "line2": "2 66418  50.0012 284.8412 0008104 339.3875  20.6709 14.21580215  3887"}}, "geometry": {"type": "Point", "coordinates": [-46.201612758982634, 32.00256708530833]}}, {"type": "Feature", "properties": {"norad_id": 66419, "name": "HULIANWANG DIGUI 13H", "group": "last-30-days", "lat": 37.76796566455591, "lon": -37.28869504788437, "alt_km": 812.6187378942532, "timestamp": "2025-12-07T22:37:41.855839+00:00", "meta": {"OBJECT_NAME": "HULIANWANG DIGUI 13H", "OBJECT_ID": "2025-258H", "EPOCH": "2025-12-07T07:11:49.889472", "MEAN_MOTION": 14.21707586, "ECCENTRICITY": 0.00075632, "INCLINATION": 50.0007, "RA_OF_ASC_NODE": 284.8288, "ARG_OF_PERICENTER": 339.8057, "MEAN_ANOMALY": 20.2555, "EPHEMERIS_TYPE": 0, "CLASSIFICATION_TYPE": "U", "NORAD_CAT_ID": 66419, "ELEMENT_SET_NO": 999, "REV_AT_EPOCH": 388, "BSTAR": 0.00028989243, "MEAN_MOTION_DOT": 4.83e-06, "MEAN_MOTION_DDOT": 0}, "tle": {"line1": "1 66419U 25258H   25341.29988298  .00000483  00000+0  28989-3 0  9991", "line2": "2 66419  50.0007 284.8288 0007563 339.8057  20.2555 14.21707586  3885"}}, "geometry": {"type": "Point", "coordinates": [-37.28869504788437, 37.76796566455591]}}, {"type": "Feature", "properties": {"norad_id": 66420, "name": "HULIANWANG DIGUI 13J", "group": "last-30-days", "lat": 41.9446817035819, "lon": -28.889192543771795, "alt_km": 811.713718692431, "timestamp": "2025-12-07T22:37:41.855852+00:00", "meta": {"OBJECT_NAME": "HULIANWANG DIGUI 13J", "OBJECT_ID": "2025-258J", "EPOCH": "2025-12-07T07:09:47.060640", "MEAN_MOTION": 14.21873195, "ECCENTRICITY": 0.0006791, "INCLINATION": 50.0007, "RA_OF_ASC_NODE": 284.8319, "ARG_OF_PERICENTER": 346.104, "MEAN_ANOMALY": 13.9684, "EPHEMERIS_TYPE": 0, "CLASSIFICATION_TYPE": "U", "NORAD_CAT_ID": 66420, "ELEMENT_SET_NO": 999, "REV_AT_EPOCH": 387, "BSTAR": 0.00028871693, "MEAN_MOTION_DOT": 4.82e-06, "MEAN_MOTION_DDOT": 0}, "tle": {"line1": "1 66420U 25258J   25341.29846135  .00000482  00000+0  28872-3 0  9996", "line2": "2 66420  50.0007 284.8319 0006791 346.1040  13.9684 14.21873195  3878"}}, "geometry": {"type": "Point", "coordinates": [-28.889192543771795, 41.9446817035819]}}, {"type": "Feature", "properties": {"norad_id": 66421, "name": "CZ-12 R/B", "group": "last-30-days", "lat": 13.688819992222754, "lon": -69.43545874259699, "alt_km": 787.4312291273973, "timestamp": "2025-12-07T22:37:41.855863+00:00", "meta": {"OBJECT_NAME": "CZ-12 R/B", "OBJECT_ID": "2025-258K", "EPOCH": "2025-12-07T07:34:44.318208", "MEAN_MOTION": 14.42320426, "ECCENTRICITY": 0.00645151, "INCLINATION": 49.9961, "RA_OF_ASC_NODE": 281.484, "ARG_OF_PERICENTER": 229.9079, "MEAN_ANOMALY": 129.6175, "EPHEMERIS_TYPE": 0, "CLASSIFICATION_TYPE": "U", "NORAD_CAT_ID": 66421, "ELEMENT_SET_NO": 999, "REV_AT_EPOCH": 393, "BSTAR": 0.0001278697, "MEAN_MOTION_DOT": 2.65e-06, "MEAN_MOTION_DDOT": 0}, "tle": {"line1": "1 66421U 25258K   25341.31579072  .00000265  00000+0  12787-3 0  9990", "line2": "2 66421  49.9961 281.4840 0064515 229.9079 129.6175 14.42320426  3939"}}, "geometry": {"type": "Point", "coordinates": [-69.43545874259699, 13.688819992222754]}}, {"type": "Feature", "properties": {"norad_id": 66422, "name": "STARLINK-35617", "group": "last-30-days", "lat": -33.44127183191436, "lon": 30.62015483039439, "alt_km": 446.2832275097926, "timestamp": "2025-12-07T22:37:41.855874+00:00", "meta": {"OBJECT_NAME": "STARLINK-35617", "OBJECT_ID": "2025-259A", "EPOCH": "2025-12-07T06:00:04.999968", "MEAN_MOTION": 15.40621207, "ECCENTRICITY": 0.00011056, "INCLINATION": 43.0007, "RA_OF_ASC_NODE": 79.7417, "ARG_OF_PERICENTER": 259.6203, "MEAN_ANOMALY": 159.4131, "EPHEMERIS_TYPE": 0, "CLASSIFICATION_TYPE": "U", "NORAD_CAT_ID": 66422, "ELEMENT_SET_NO": 999, "REV_AT_EPOCH": 539, "BSTAR": 0.0020531752, "MEAN_MOTION_DOT": 0.00086211, "MEAN_MOTION_DDOT": 0}, "tle": {"line1": "1 66422U 25259A   25341.25005787  .00086211  00000+0  20532-2 0  9993", "line2": "2 66422  43.0007  79.7417 0001105 259.6203 159.4131 15.40621207  5394"}}, "geometry": {"type": "Point", "coordinates": [30.62015483039439, -33.44127183191436]}}, {"type": "Feature", "properties": {"norad_id": 66423, "name": "STARLINK-35618", "group": "last-30-days", "lat": -26.857917972247957, "lon": 42.80107390115654, "alt_km": 445.7869267693959, "timestamp": "2025-12-07T22:37:41.855884+00:00", "meta": {"OBJECT_NAME": "STARLINK-35618", "OBJECT_ID": "2025-259B", "EPOCH": "2025-12-07T06:00:04.999968", "MEAN_MOTION": 15.40620028, "ECCENTRICITY": 0.00013084, "INCLINATION": 43.0004, "RA_OF_ASC_NODE": 79.7117, "ARG_OF_PERICENTER": 267.2773, "MEAN_ANOMALY": 164.1878, "EPHEMERIS_TYPE": 0, "CLASSIFICATION_TYPE": "U", "NORAD_CAT_ID": 66423, "ELEMENT_SET_NO": 999, "REV_AT_EPOCH": 539, "BSTAR": 0.0022133419, "MEAN_MOTION_DOT": 0.0009304, "MEAN_MOTION_DDOT": 0}, "tle": {"line1": "1 66423U 25259B   25341.25005787  .00093040  00000+0  22133-2 0  9991", "line2": "2 66423  43.0004  79.7117 0001308 267.2773 164.1878 15.40620028  5392"}}, "geometry": {"type": "Point", "coordinates": [42.80107390115654, -26.857917972247957]}}, {"type": "Feature", "properties": {"norad_id": 66424, "name": "STARLINK-35588", "group": "last-30-days", "lat": -19.320348363669844, "lon": 53.58891831532231, "alt_km": 445.1991505021142, "timestamp": "2025-12-07T22:37:41.855895+00:00", "meta": {"OBJECT_NAME": "STARLINK-35588", "OBJECT_ID": "2025-259C", "EPOCH": "2025-12-07T06:00:04.999968", "MEAN_MOTION": 15.4060458, "ECCENTRICITY": 0.00013883, "INCLINATION": 43.0007, "RA_OF_ASC_NODE": 79.682, "ARG_OF_PERICENTER": 267.2024, "MEAN_ANOMALY": 176.7143, "EPHEMERIS_TYPE": 0, "CLASSIFICATION_TYPE": "U", "NORAD_CAT_ID": 66424, "ELEMENT_SET_NO": 999, "REV_AT_EPOCH": 539, "BSTAR": 0.0031494072, "MEAN_MOTION_DOT": 0.00133152, "MEAN_MOTION_DDOT": 0}, "tle": {"line1": "1 66424U 25259C   25341.25005787  .00133152  00000+0  31494-2 0  9991", "line2": "2 66424  43.0007  79.6820 0001388 267.2024 176.7143 15.40604580  5392"}}, "geometry": {"type": "Point", "coordinates": [53.58891831532231, -19.320348363669844]}}, {"type": "Feature", "properties": {"norad_id": 66425, "name": "STARLINK-35555", "group": "last-30-days", "lat": -11.251417862816808, "lon": 63.32972429757415, "alt_km": 444.82694820601864, "timestamp": "2025-12-07T22:37:41.855905+00:00", "meta": {"OBJECT_NAME": "STARLINK-35555", "OBJECT_ID": "2025-259D", "EPOCH": "2025-12-07T06:00:04.999968", "MEAN_MOTION": 15.40621898, "ECCENTRICITY": 0.00016782, "INCLINATION": 43.0005, "RA_OF_ASC_NODE": 79.6493, "ARG_OF_PERICENTER": 259.4859, "MEAN_ANOMALY": 196.8728, "EPHEMERIS_TYPE": 0, "CLASSIFICATION_TYPE": "U", "NORAD_CAT_ID": 66425, "ELEMENT_SET_NO": 999, "REV_AT_EPOCH": 539, "BSTAR": 0.0019990326, "MEAN_MOTION_DOT": 0.00083907, "MEAN_MOTION_DDOT": 0}, "tle": {"line1": "1 66425U 25259D   25341.25005787  .00083907  00000+0  19990-2 0  9991", "line2": "2 66425  43.0005  79.6493 0001678 259.4859 196.8728 15.40621898  5391"}}, "geometry": {"type": "Point", "coordinates": [63.32972429757415, -11.251417862816808]}}]}